ONEWEB-0401             
1 50481U 21132N   26188.38918014  .00000068  00000+0  13971-3 0  9993
2 50481  87.9191 331.4242 0001670 101.6629 258.4691 13.18686346224271
ONEWEB-0402             
1 50482U 21132P   26188.35208042  .00000097  00000+0  21264-3 0  9990
2 50482  87.9189 331.4208 0001411 102.6254 257.5036 13.18687106224299
ONEWEB-0403             
1 50483U 21132Q   26188.37737747  .00000035  00000+0  55860-4 0  9994
2 50483  87.9190 331.4400 0001878  92.7020 267.4327 13.18686068224258
ONEWEB-0404             
1 50484U 21132R   26188.47384022 -.00000551  00000+0 -15900-2 0  9994
2 50484  87.8883  17.0280 0001961  78.8769 281.2579 13.11415461218355
ONEWEB-0405             
1 50485U 21132S   26187.93559291  .00000035  00000+0  55495-4 0  9997
2 50485  87.9193 331.5126 0002320 100.0306 260.1088 13.18684369224595
ONEWEB-0406             
1 50486U 21132T   26188.38243167  .00000052  00000+0  99454-4 0  9992
2 50486  87.9188 331.4392 0001953  81.2606 278.8747 13.18686571224289
ONEWEB-0407             
1 50487U 21132U   26188.37568286  .00000060  00000+0  12009-3 0  9993
2 50487  87.9191 331.4333 0001870 103.8429 256.2911 13.18687815224220
ONEWEB-0409             
1 50488U 21132V   26188.47215044 -.00000539  00000+0 -15571-2 0  9995
2 50488  87.8885  17.0171 0002049  82.0612 278.0748 13.11415641218242
ONEWEB-0412             
1 50489U 21132W   26188.36388515  .00000081  00000+0  17305-3 0  9996
2 50489  87.9188 331.4437 0001556 100.2016 259.9292 13.18685901224313
ONEWEB-0413             
1 50490U 21132X   26188.36894657  .00000034  00000+0  54626-4 0  9993
2 50490  87.9179 331.4396 0001677 104.7028 255.4290 13.18687210224252
ONEWEB-0414             
1 50491U 21132Y   26187.89851059  .00000053  00000+0  10178-3 0  9994
2 50491  87.9188 331.5173 0001692  94.3492 265.7833 13.18686202224227
ONEWEB-0417             
1 50492U 21132Z   26188.36219751  .00000048  00000+0  87856-4 0  9997
2 50492  87.9181 331.4430 0001934  89.6558 270.4796 13.18686202224260
ONEWEB-0418             
1 50493U 21132AA  26188.37217270  .00000030  00000+0  43791-4 0  9994
2 50493  87.9185 331.4416 0001966  88.8699 271.2659 13.18685542224321
ONEWEB-0419             
1 50494U 21132AB  26188.39108028  .00000059  00000+0  11762-3 0  9990
2 50494  87.9191 331.4381 0002136  93.5774 266.5602 13.18666370224241
ONEWEB-0420             
1 50495U 21132AC  26188.35544259  .00000089  00000+0  19200-3 0  9995
2 50495  87.9183 331.4466 0001880 103.4103 256.7239 13.18687000224238
ONEWEB-0421             
1 50496U 21132AD  26187.89345876  .00000103  00000+0  22747-3 0  9995
2 50496  87.9183 331.5367 0001485  92.4292 267.7010 13.18685847224211
ONEWEB-0424             
1 50497U 21132AE  26187.93054931 -.00000016  00000+0 -74366-4 0  9990
2 50497  87.9190 331.5280 0002236  96.1916 263.9470 13.18686344224247
ONEWEB-0426             
1 50498U 21132AF  26187.88923701  .00000071  00000+0  14750-3 0  9994
2 50498  87.9188 331.5276 0001608  74.7598 285.3712 13.18685419224182
ONEWEB-0427             
1 50499U 21132AG  26188.38412297  .00000054  00000+0  10301-3 0  9993
2 50499  87.9191 331.4180 0001885  90.5151 269.6197 13.18686201224270
ONEWEB-0429             
1 50500U 21132AH  26187.91536464  .00000062  00000+0  12570-3 0  9996
2 50500  87.9183 331.5343 0001825 100.4667 259.6670 13.18686864224183
ONEWEB-0430             
1 50501U 21132AJ  26188.35882545  .00000076  00000+0  15957-3 0  9997
2 50501  87.9183 331.4445 0001977 103.9226 256.2126 13.18687837224284
ONEWEB-0432             
1 50502U 21132AK  26188.34183196  .00000093  00000+0  20433-3 0  9997
2 50502  87.9188 331.4340 0002311 100.8696 259.2696 13.18686302224230
ONEWEB-0440             
1 50503U 21132AL  26188.37905725  .00000039  00000+0  66576-4 0  9990
2 50503  87.9191 331.4379 0001597 103.7822 256.3488 13.18686536224231
ONEWEB-0450             
1 50504U 21132AM  26188.37245407  .00000003  00000+0 -25801-4 0  9993
2 50504  87.9182 331.4424 0001889 102.2878 257.8465 13.18686021224265
ONEWEB-0410             
1 51622U 22012A   26188.41629867  .00000077  00000+0  16620-3 0  9992
2 51622  87.9149   1.8340 0002221  55.0674 305.0666 13.17649969216365
ONEWEB-0411             
1 51623U 22012B   26187.94267483  .00000633  00000+0  17763-2 0  9998
2 51623  87.8825  32.3314 0002180  98.9697 261.1678 13.10374208211871
ONEWEB-0415             
1 51624U 22012C   26187.93927642  .00000545  00000+0  15247-2 0  9995
2 51624  87.8822  32.3302 0002130  88.8593 271.2778 13.10374993211878
ONEWEB-0416             
1 51625U 22012D   26187.95115422  .00000499  00000+0  13927-2 0  9994
2 51625  87.8814  32.3449 0002225  87.6733 272.4649 13.10372073211912
ONEWEB-0422             
1 51626U 22012E   26187.89486889  .00000058  00000+0  11601-3 0  9995
2 51626  87.9145   1.9387 0001616 110.5777 249.5528 13.17650727216403
ONEWEB-0423             
1 51627U 22012F   26188.41966554  .00000030  00000+0  44353-4 0  9998
2 51627  87.9139   1.8382 0001813  88.9432 271.1907 13.17647992216363
ONEWEB-0425             
1 51628U 22012G   26188.03769032  .00000089  00000+0  21953-3 0  9993
2 51628  87.8815  32.3114 0001945  75.1328 285.0015 13.10371204211928
