OBJECT_NAME,OBJECT_ID,EPOCH,MEAN_MOTION,ECCENTRICITY,INCLINATION,RA_OF_ASC_NODE,ARG_OF_PERICENTER,MEAN_ANOMALY,EPHEMERIS_TYPE,CLASSIFICATION_TYPE,NORAD_CAT_ID,ELEMENT_SET_NO,REV_AT_EPOCH,BSTAR,MEAN_MOTION_DOT,MEAN_MOTION_DDOT
ONEWEB-0401,2021-132N,2026-07-07T09:20:25.164096,13.18686346,.000167,87.9191,331.4242,101.6629,258.4691,0,U,50481,999,22427,.13971E-3,.68E-6,0
ONEWEB-0402,2021-132P,2026-07-07T08:26:59.748288,13.18687106,.0001411,87.9189,331.4208,102.6254,257.5036,0,U,50482,999,22429,.21264E-3,.97E-6,0
ONEWEB-0403,2021-132Q,2026-07-07T09:03:25.413408,13.18686068,.0001878,87.9190,331.4400,92.7020,267.4327,0,U,50483,999,22425,.5586E-4,.35E-6,0
ONEWEB-0404,2021-132R,2026-07-07T11:22:19.795008,13.11415461,.0001961,87.8883,17.0280,78.8769,281.2579,0,U,50484,999,21835,-.159E-2,-.551E-5,0
ONEWEB-0405,2021-132S,2026-07-06T22:27:15.227424,13.18684369,.000232,87.9193,331.5126,100.0306,260.1088,0,U,50485,999,22459,.55495E-4,.35E-6,0
ONEWEB-0406,2021-132T,2026-07-07T09:10:42.096288,13.18686571,.0001953,87.9188,331.4392,81.2606,278.8747,0,U,50486,999,22428,.99454E-4,.52E-6,0
ONEWEB-0407,2021-132U,2026-07-07T09:00:58.999104,13.18687815,.000187,87.9191,331.4333,103.8429,256.2911,0,U,50487,999,22422,.12009E-3,.6E-6,0
ONEWEB-0409,2021-132V,2026-07-07T11:19:53.798016,13.11415641,.0002049,87.8885,17.0171,82.0612,278.0748,0,U,50488,999,21824,-.15571E-2,-.539E-5,0
ONEWEB-0412,2021-132W,2026-07-07T08:43:59.676960,13.18685901,.0001556,87.9188,331.4437,100.2016,259.9292,0,U,50489,999,22431,.17305E-3,.81E-6,0
ONEWEB-0413,2021-132X,2026-07-07T08:51:16.983648,13.18687210,.0001677,87.9179,331.4396,104.7028,255.4290,0,U,50490,999,22425,.54626E-4,.34E-6,0
ONEWEB-0414,2021-132Y,2026-07-06T21:33:51.314976,13.18686202,.0001692,87.9188,331.5173,94.3492,265.7833,0,U,50491,999,22422,.10178E-3,.53E-6,0
ONEWEB-0417,2021-132Z,2026-07-07T08:41:33.864864,13.18686202,.0001934,87.9181,331.4430,89.6558,270.4796,0,U,50492,999,22426,.87856E-4,.48E-6,0
ONEWEB-0418,2021-132AA,2026-07-07T08:55:55.721280,13.18685542,.0001966,87.9185,331.4416,88.8699,271.2659,0,U,50493,999,22432,.43791E-4,.3E-6,0
ONEWEB-0419,2021-132AB,2026-07-07T09:23:09.336192,13.18666370,.0002136,87.9191,331.4381,93.5774,266.5602,0,U,50494,999,22424,.11762E-3,.59E-6,0
ONEWEB-0420,2021-132AC,2026-07-07T08:31:50.239776,13.18687000,.000188,87.9183,331.4466,103.4103,256.7239,0,U,50495,999,22423,.192E-3,.89E-6,0
ONEWEB-0421,2021-132AD,2026-07-06T21:26:34.836864,13.18685847,.0001485,87.9183,331.5367,92.4292,267.7010,0,U,50496,999,22421,.22747E-3,.103E-5,0
ONEWEB-0424,2021-132AE,2026-07-06T22:19:59.460384,13.18686344,.0002236,87.9190,331.5280,96.1916,263.9470,0,U,50497,999,22424,-.74366E-4,-.16E-6,0
ONEWEB-0426,2021-132AF,2026-07-06T21:20:30.077664,13.18685419,.0001608,87.9188,331.5276,74.7598,285.3712,0,U,50498,999,22418,.1475E-3,.71E-6,0
ONEWEB-0427,2021-132AG,2026-07-07T09:13:08.224608,13.18686201,.0001885,87.9191,331.4180,90.5151,269.6197,0,U,50499,999,22427,.10301E-3,.54E-6,0
ONEWEB-0429,2021-132AH,2026-07-06T21:58:07.504896,13.18686864,.0001825,87.9183,331.5343,100.4667,259.6670,0,U,50500,999,22418,.1257E-3,.62E-6,0
ONEWEB-0430,2021-132AJ,2026-07-07T08:36:42.518880,13.18687837,.0001977,87.9183,331.4445,103.9226,256.2126,0,U,50501,999,22428,.15957E-3,.76E-6,0
ONEWEB-0432,2021-132AK,2026-07-07T08:12:14.281344,13.18686302,.0002311,87.9188,331.4340,100.8696,259.2696,0,U,50502,999,22423,.20433E-3,.93E-6,0
ONEWEB-0440,2021-132AL,2026-07-07T09:05:50.546400,13.18686536,.0001597,87.9191,331.4379,103.7822,256.3488,0,U,50503,999,22423,.66576E-4,.39E-6,0
ONEWEB-0450,2021-132AM,2026-07-07T08:56:20.031648,13.18686021,.0001889,87.9182,331.4424,102.2878,257.8465,0,U,50504,999,22426,-.25801E-4,.3E-7,0
ONEWEB-0410,2022-012A,2026-07-07T09:59:28.205088,13.17649969,.0002221,87.9149,1.8340,55.0674,305.0666,0,U,51622,999,21636,.1662E-3,.77E-6,0
ONEWEB-0411,2022-012B,2026-07-06T22:37:27.105312,13.10374208,.000218,87.8825,32.3314,98.9697,261.1678,0,U,51623,999,21187,.17763E-2,.633E-5,0
ONEWEB-0415,2022-012C,2026-07-06T22:32:33.482688,13.10374993,.000213,87.8822,32.3302,88.8593,271.2778,0,U,51624,999,21187,.15247E-2,.545E-5,0
ONEWEB-0416,2022-012D,2026-07-06T22:49:39.724608,13.10372073,.0002225,87.8814,32.3449,87.6733,272.4649,0,U,51625,999,21191,.13927E-2,.499E-5,0
ONEWEB-0422,2022-012E,2026-07-06T21:28:36.672096,13.17650727,.0001616,87.9145,1.9387,110.5777,249.5528,0,U,51626,999,21640,.11601E-3,.58E-6,0
ONEWEB-0423,2022-012F,2026-07-07T10:04:19.102656,13.17647992,.0001813,87.9139,1.8382,88.9432,271.1907,0,U,51627,999,21636,.44353E-4,.3E-6,0
ONEWEB-0425,2022-012G,2026-07-07T00:54:16.443648,13.10371204,.0001945,87.8815,32.3114,75.1328,285.0015,0,U,51628,999,21192,.21953E-3,.89E-6,0
